name,address,city,state,zip,type,status,county,latitude,longitude,owner,beds,helipad
LINCOLN HOSPITAL,10 NICHOLS ST,DAVENPORT,WA,99122,CRITICAL ACCESS,OPEN,LINCOLN,47.657927719,-118.145359813,GOVERNMENT - DISTRICT/AUTHORITY,60,Y
PROVIDENCE CENTRALIA HOSPITAL,914 SOUTH SCHEUBER ROAD,CENTRALIA,WA,98531,GENERAL ACUTE CARE,OPEN,LEWIS,46.7124044820001,-122.985580565,NON-PROFIT,100,Y
TRI-STATE MEMORIAL HOSPITAL,1221 HIGHLAND AVENUE,CLARKSTON,WA,99403,CRITICAL ACCESS,OPEN,ASOTIN,46.4025536880001,-117.054761293,NON-PROFIT,25,Y
CENTRAL WASHINGTON HOSPITAL,1201 SOUTH MILLER STREET,WENATCHEE,WA,98807,GENERAL ACUTE CARE,OPEN,CHELAN,47.4066046460001,-120.321030512,NON-PROFIT,174,Y
JEFFERSON HEALTHCARE,834 SHERIDAN ST,PORT TOWNSEND,WA,98368,CRITICAL ACCESS,OPEN,JEFFERSON,48.1060433220001,-122.789273191,GOVERNMENT - DISTRICT/AUTHORITY,25,Y
PEACEHEALTH SOUTHWEST MEDICAL CENTER,400 NE MOTHER JOSEPH PLACE,VANCOUVER,WA,98668,GENERAL ACUTE CARE,OPEN,CLARK,45.624437507,-122.58072696,NON-PROFIT,360,Y
CAPITAL MEDICAL CENTER,3900 CAPITAL MALL DR SW,OLYMPIA,WA,98502,GENERAL ACUTE CARE,OPEN,THURSTON,47.0427309150001,-122.9517868,PROPRIETARY,110,Y
CASCADE VALLEY HOSPITAL,330 STILLAGUAMISH AVE S,ARLINGTON,WA,98223,GENERAL ACUTE CARE,OPEN,SNOHOMISH,48.18891955,-122.11894584,GOVERNMENT - DISTRICT/AUTHORITY,48,Y
EVERGREEN HEALTH MONROE,14701 179TH AVE SE,MONROE,WA,98272,GENERAL ACUTE CARE,OPEN,SNOHOMISH,47.8642199180001,-121.989799617,GOVERNMENT - DISTRICT/AUTHORITY,72,N
GRAYS HARBOR COMMUNITY HOSPITAL,915 ANDERSON DR,ABERDEEN,WA,98520,GENERAL ACUTE CARE,OPEN,GRAYS HARBOR,46.9792355820001,-123.847185952,NON-PROFIT,105,Y
HIGHLINE MEDICAL CENTER,16251 SYLVESTER RD SW,BURIEN,WA,98166,GENERAL ACUTE CARE,OPEN,KING,47.4574355870001,-122.343212219,NON-PROFIT,269,N
ISLAND HOSPITAL,1211 24TH ST,ANACORTES,WA,98221,GENERAL ACUTE CARE,OPEN,SKAGIT,48.501928756,-122.61566679,GOVERNMENT - DISTRICT/AUTHORITY,43,Y
KITTITAS VALLEY COMMUNITY HOSPITAL,603 S CHESTNUT ST,ELLENSBURG,WA,98926,CRITICAL ACCESS,OPEN,KITTITAS,46.9870939730001,-120.53789634,GOVERNMENT - DISTRICT/AUTHORITY,25,Y
LEGACY SALMON CREEK MEDICAL CENTER,2211 NE 139TH STREET,VANCOUVER,WA,98686,GENERAL ACUTE CARE,OPEN,CLARK,45.720983523,-122.648241544,NON-PROFIT,220,Y
OCEAN BEACH HOSPITAL,174 1ST AVENUE NORTH,ILWACO,WA,98624,CRITICAL ACCESS,OPEN,PACIFIC,46.3114343020001,-124.042630827,GOVERNMENT - DISTRICT/AUTHORITY,25,Y
OLYMPIC MEDICAL CENTER,939 CAROLINE ST,PORT ANGELES,WA,98362,GENERAL ACUTE CARE,OPEN,CLALLAM,48.089553348,-123.111195943,GOVERNMENT - DISTRICT/AUTHORITY,126,Y
PROSSER MEMORIAL HOSPITAL,723 MEMORIAL ST,PROSSER,WA,99350,CRITICAL ACCESS,OPEN,BENTON,46.20809196,-119.763911478,GOVERNMENT - DISTRICT/AUTHORITY,26,N
PROVIDENCE HOLY FAMILY HOSPITAL,5633 N. LIDGERWOOD ST,SPOKANE,WA,99207,GENERAL ACUTE CARE,OPEN,SPOKANE,47.709754423,-117.406725032,NON-PROFIT,272,Y
PROVIDENCE MOUNT CARMEL HOSPITAL,982 E COLUMBIA AVE,COLVILLE,WA,99114,CRITICAL ACCESS,OPEN,STEVENS,48.5406717930001,-117.892748468,NON-PROFIT,25,Y
PULLMAN REGIONAL HOSPITAL,835 SOUTHEAST BISHOP BOULEVARD,PULLMAN,WA,99163,CRITICAL ACCESS,OPEN,WHITMAN,46.712388236,-117.169805969,GOVERNMENT - DISTRICT/AUTHORITY,25,Y
SKAGIT VALLEY HOSPITAL,1415 KINCAID ST E,MT VERNON,WA,98273,GENERAL ACUTE CARE,OPEN,SKAGIT,48.4178696800001,-122.324043093,GOVERNMENT - DISTRICT/AUTHORITY,137,Y
SKYLINE HOSPITAL,211 SKYLINE DR,WHITE SALMON,WA,98672,CRITICAL ACCESS,OPEN,KLICKITAT,45.7223792440001,-121.470530676,GOVERNMENT - DISTRICT/AUTHORITY,25,Y
VIRGINIA MASON MEDICAL CENTER,925 SENECA STREET,SEATTLE,WA,98101,GENERAL ACUTE CARE,OPEN,KING,47.6097766840001,-122.327866797,NON-PROFIT,336,N
WHIDBEY GENERAL HOSPITAL,101 MAIN STREET NORTH,COUPEVILLE,WA,98239,CRITICAL ACCESS,OPEN,ISLAND,48.2138932940001,-122.684326801,GOVERNMENT - DISTRICT/AUTHORITY,51,Y
WHITMAN HOSPITAL AND MEDICAL CENTER,1200 WEST FAIRVIEW ROAD,COLFAX,WA,99111,CRITICAL ACCESS,OPEN,WHITMAN,46.8689303140001,-117.376049763,GOVERNMENT - DISTRICT/AUTHORITY,25,Y
HARBORVIEW MEDICAL CENTER,325 9TH AVE,SEATTLE,WA,98104,GENERAL ACUTE CARE,OPEN,KING,47.603860146,-122.323988922,GOVERNMENT - LOCAL,413,Y
OVERLAKE HOSPITAL MEDICAL CENTER,1035 116TH AVE NE,BELLEVUE,WA,98004,GENERAL ACUTE CARE,OPEN,KING,47.620491353,-122.187175153,NON-PROFIT,337,Y
LOURDES MEDICAL CENTER,520 4TH AVE N,PASCO,WA,99301,CRITICAL ACCESS,OPEN,FRANKLIN,46.2350255950001,-119.09538616,NON-PROFIT,106,Y
PROVIDENCE HOOD RIVER MEMORIAL HOSPITAL,810 12TH STREET,HOOD RIVER,OR,97031,CRITICAL ACCESS,OPEN,HOOD RIVER,45.7048319680001,-121.52390863,NON-PROFIT,25,N
ST CHARLES - MADRAS,470 NE A STREET,MADRAS,OR,97741,GENERAL ACUTE CARE,OPEN,JEFFERSON,44.637873733,-121.120725417,NON-PROFIT,-999,Y
LEGACY MERIDIAN PARK MEDICAL CENTER,19300 SW 65TH AVENUE,TUALATIN,OR,97062,GENERAL ACUTE CARE,OPEN,CLACKAMAS,45.3784323780001,-122.740779264,NON-PROFIT,130,Y
PROVIDENCE WILLAMETTE FALLS MEDICAL CENTER,1500 DIVISION STREET,OREGON CITY,OR,97045,GENERAL ACUTE CARE,OPEN,CLACKAMAS,45.356233794,-122.58710766,NON-PROFIT,89,Y
PROVIDENCE ST VINCENT MEDICAL CENTER,9205 SW BARNES ROAD,PORTLAND,OR,97225,GENERAL ACUTE CARE,OPEN,WASHINGTON,45.510673873,-122.771760079,NON-PROFIT,528,Y
TUALITY COMMUNITY HOSPITAL,335 SE 8TH AVENUE,HILLSBORO,OR,97123,GENERAL ACUTE CARE,OPEN,WASHINGTON,45.5194891790001,-122.978185646,NON-PROFIT,215,Y
LEGACY GOOD SAMARITAN MEDICAL CENTER,"1015 NW 22ND AVENUE, W121",PORTLAND,OR,97210,GENERAL ACUTE CARE,OPEN,MULTNOMAH,45.530259013,-122.697491294,NON-PROFIT,248,N
PROVIDENCE PORTLAND MEDICAL CENTER,4805 NE GLISAN STREET,PORTLAND,OR,97213,GENERAL ACUTE CARE,OPEN,MULTNOMAH,45.5275335530001,-122.613506236,NON-PROFIT,400,Y
SAMARITAN LEBANON COMMUNITY HOSPITAL,525 N SANTIAM HIGHWAY,LEBANON,OR,97355,GENERAL ACUTE CARE,OPEN,LINN,44.5513269570001,-122.906964077,NON-PROFIT,25,Y
SALEM HOSPITAL,"890 OAK STREET, SE",SALEM,OR,97301,GENERAL ACUTE CARE,OPEN,MARION,44.9327093430001,-123.034070976,NON-PROFIT,381,Y
SUTTER COAST HOSPITAL,"555 5TH STREET, SUITE 2",BROOKINGS,OR,97415,GENERAL ACUTE CARE,OPEN,CURRY,42.057873215,-124.288500332,NON-PROFIT,-999,N
LAKE DISTRICT HOSPITAL,700 SOUTH J STREET,LAKEVIEW,OR,97630,CRITICAL ACCESS,OPEN,LAKE,42.1812946640001,-120.352111218,GOVERNMENT - DISTRICT/AUTHORITY,71,Y
SKY LAKES MEDICAL CENTER,2865 DAGGETT AVENUE,KLAMATH FALLS,OR,97601,GENERAL ACUTE CARE,OPEN,KLAMATH,42.253160655,-121.785190767,NON-PROFIT,98,Y
GRANDE RONDE HOSPITAL,900 SUNSET DRIVE,LA GRANDE,OR,97850,CRITICAL ACCESS,OPEN,UNION,45.319427191,-118.106070394,NON-PROFIT,25,Y
WILLAMETTE VALLEY MEDICAL CENTER,2700 SE STRATUS AVE,MCMINNVILLE,OR,97128,GENERAL ACUTE CARE,OPEN,YAMHILL,45.1990382610001,-123.16467277,PROPRIETARY,88,Y
GOOD SAMARITAN REGIONAL MEDICAL CENTER,3600 NW SAMARITAN DRIVE,CORVALLIS,OR,97330,GENERAL ACUTE CARE,OPEN,BENTON,44.603222659,-123.252623623,NON-PROFIT,164,Y
ASANTE ROGUE REGIONAL MEDICAL CENTER,2825 E BARNETT ROAD,MEDFORD,OR,97504,GENERAL ACUTE CARE,OPEN,JACKSON,42.318067,-122.830801,NOT AVAILABLE,378,Y
KAISER FOUNDATION HOSPITAL - WESTSIDE,2875 NW STUCKI AVE,HILLSBORO,OR,97124,GENERAL ACUTE CARE,OPEN,WASHINGTON,45.5392542710001,-122.87700175,NOT AVAILABLE,-999,N
"SAINT ALPHONSUS MEDICAL CENTER - BAKER CITY, INC",3325 POCAHONTAS ROAD,BAKER CITY,OR,97814,GENERAL ACUTE CARE,OPEN,BAKER,44.7951514470001,-117.84712329,NON-PROFIT,65,Y
SAMARITAN ALBANY GENERAL HOSPITAL,1046 6TH AVENUE SW,ALBANY,OR,97321,GENERAL ACUTE CARE,OPEN,LINN,44.631672768,-123.116324119,NON-PROFIT,73,Y
ST CHARLES PRINEVILLE,384 SE COMBS FLAT ROAD,PRINEVILLE,OR,97754,GENERAL ACUTE CARE,OPEN,CROOK,44.2980280680001,-120.825076515,NON-PROFIT,-999,Y
ASANTE THREE RIVERS MEDICAL CENTER,500 SW RAMSEY AVENUE,GRANTS PASS,OR,97527,GENERAL ACUTE CARE,OPEN,JOSEPHINE,42.421377884,-123.342841171,NOT AVAILABLE,125,N
ASANTE ASHLAND COMMUNITY HOSPITAL,280 MAPLE STREET,ASHLAND,OR,97520,GENERAL ACUTE CARE,OPEN,JACKSON,42.2059229340001,-122.724948413,NON-PROFIT,41,N
PROVIDENCE MEDFORD MEDICAL CENTER,1111 CRATER LAKE AVENUE,MEDFORD,OR,97504,GENERAL ACUTE CARE,OPEN,JACKSON,42.3396248970001,-122.862719847,NON-PROFIT,126,Y
BAY AREA HOSPITAL,1775 THOMPSON ROAD,COOS BAY,OR,97420,GENERAL ACUTE CARE,OPEN,COOS,43.3834065080001,-124.232995297,GOVERNMENT - DISTRICT/AUTHORITY,172,Y
COQUILLE VALLEY HOSPITAL DISTRICT,940 EAST 5TH STREET,COQUILLE,OR,97423,CRITICAL ACCESS,OPEN,COOS,43.179442712,-124.179386007,GOVERNMENT - DISTRICT/AUTHORITY,25,Y
MCKENZIE-WILLAMETTE MEDICAL CENTER,1460 G STREET,SPRINGFIELD,OR,97477,GENERAL ACUTE CARE,OPEN,LANE,44.053483682,-123.003690067,PROPRIETARY,113,Y
PEACE HARBOR MEDICAL CENTER,400 9TH STREET,FLORENCE,OR,97439,CRITICAL ACCESS,OPEN,LANE,43.9731419280001,-124.117477563,NON-PROFIT,21,N
SACRED HEART UNIVERSITY DISTRICT,1255 HILYARD STREET,EUGENE,OR,97401,GENERAL ACUTE CARE,OPEN,LANE,44.046021291,-123.081707753,NON-PROFIT,-999,Y
KAISER SUNNYSIDE MEDICAL CENTER,10180 SE SUNNYSIDE ROAD,CLACKAMAS,OR,97015,GENERAL ACUTE CARE,OPEN,CLACKAMAS,45.431320359,-122.560466192,NON-PROFIT,269,N
PROVIDENCE MILWAUKIE HOSPITAL,10150 SE 32ND AVENUE,MILWAUKIE,OR,97222,GENERAL ACUTE CARE,OPEN,CLACKAMAS,45.449366378,-122.627562906,NON-PROFIT,63,N
PROVIDENCE SEASIDE HOSPITAL,725 S WAHANNA ROAD,SEASIDE,OR,97138,GENERAL ACUTE CARE,OPEN,CLATSOP,45.989015017,-123.91206867,NON-PROFIT,47,Y
MID-COLUMBIA MEDICAL CENTER,1700 E 19TH STREET,THE DALLES,OR,97058,GENERAL ACUTE CARE,OPEN,WASCO,45.5872715880001,-121.16451957,NON-PROFIT,49,Y
LEGACY EMANUEL MEDICAL CENTER,2801 N GANTENBEIN AVENUE,PORTLAND,OR,97227,GENERAL ACUTE CARE,OPEN,MULTNOMAH,45.543285881,-122.67022181,NON-PROFIT,407,Y
LEGACY MOUNT HOOD MEDICAL CENTER,24800 SE STARK STREET,GRESHAM,OR,97030,GENERAL ACUTE CARE,OPEN,MULTNOMAH,45.5167841310001,-122.406989129,NON-PROFIT,111,Y
OHSU HOSPITAL AND CLINICS,3181 SW SAM JACKSON PARK ROAD,PORTLAND,OR,97239,GENERAL ACUTE CARE,OPEN,MULTNOMAH,45.4989463060001,-122.685971161,GOVERNMENT - DISTRICT/AUTHORITY,522,Y
GOOD SHEPHERD MEDICAL CENTER,610 NW 11TH STREET,HERMISTON,OR,97838,GENERAL ACUTE CARE,OPEN,UMATILLA,45.847118987,-119.308512487,NOT AVAILABLE,425,Y
PROVIDENCE NEWBERG MEDICAL CENTER,1001 PROVIDENCE DRIVE,NEWBERG,OR,97132,GENERAL ACUTE CARE,OPEN,YAMHILL,45.3083492660001,-122.935917328,NON-PROFIT,40,Y
SAMARITAN NORTH LINCOLN HOSPITAL,3043 NE 28TH STREET,LINCOLN CITY,OR,97367,GENERAL ACUTE CARE,OPEN,LINCOLN,44.9860609360001,-123.995181086,NON-PROFIT,25,Y
SAMARITAN PACIFIC COMMUNITY HOSPITAL,930 SW ABBEY STREET,NEWPORT,OR,97365,CRITICAL ACCESS,OPEN,LINCOLN,44.6293932,-124.059611456,NON-PROFIT,25,Y
EAST LOS ANGELES DOCTORS HOSPITAL,4060 WHITTIER BOULEVARD,LOS ANGELES,CA,90023,GENERAL ACUTE CARE,OPEN,LOS ANGELES,34.023647302,-118.184164805,PROPRIETARY,127,N
SOUTHERN CALIFORNIA HOSPITAL AT HOLLYWOOD,6245 DE LONGPRE AVENUE,HOLLYWOOD,CA,90028,GENERAL ACUTE CARE,OPEN,LOS ANGELES,34.0963913570001,-118.325234871,PROPRIETARY,100,N
LAKEWOOD REGIONAL MEDICAL CENTER,3700 EAST SOUTH STREET,LAKEWOOD,CA,90712,GENERAL ACUTE CARE,OPEN,LOS ANGELES,33.8597066200001,-118.148402965,PROPRIETARY,172,N
MONTEREY PARK HOSPITAL,900 SOUTH ATLANTIC BOULEVARD,MONTEREY PARK,CA,91754,GENERAL ACUTE CARE,OPEN,LOS ANGELES,34.0494660590001,-118.138262231,PROPRIETARY,101,N
SALINAS VALLEY MEMORIAL HOSPITAL,450 EAST ROMIE LANE,SALINAS,CA,93901,GENERAL ACUTE CARE,OPEN,MONTEREY,36.659030456,-121.645983804,GOVERNMENT - DISTRICT/AUTHORITY,269,N
COLLEGE MEDICAL CENTER,2776 PACIFIC AVENUE,LONG BEACH,CA,90806,GENERAL ACUTE CARE,OPEN,LOS ANGELES,33.8070928700001,-118.193389929,PROPRIETARY,121,N
KAISER FOUNDATION HOSPITAL - SAN LEANDRO,2500 MERCED STREET,SAN LEANDRO,CA,94577,GENERAL ACUTE CARE,OPEN,ALAMEDA,37.706406198,-122.164654518,NOT AVAILABLE,216,N
SCRIPPS GREEN HOSPITAL,10666 NORTH TORREY PINES ROAD,LA JOLLA,CA,92037,GENERAL ACUTE CARE,OPEN,SAN DIEGO,32.896858901,-117.24287107,NON-PROFIT,173,N
SCRIPPS MEMORIAL HOSPITAL - ENCINITAS,354 SANTA FE DRIVE,ENCINITAS,CA,92024,GENERAL ACUTE CARE,OPEN,SAN DIEGO,33.0373447760001,-117.284183383,NON-PROFIT,194,Y
WOODLAND MEMORIAL HOSPITAL,1325 COTTONWOOD STREET,WOODLAND,CA,95695,GENERAL ACUTE CARE,OPEN,YOLO,38.663925024,-121.792145249,NON-PROFIT,108,N
SAN LEANDRO HOSPITAL,13855 EAST 14TH STREET,SAN LEANDRO,CA,94578,GENERAL ACUTE CARE,OPEN,ALAMEDA,37.712288347,-122.143493689,NON-PROFIT,93,N
KAISER FOUNDATION HOSPITAL - LOS ANGELES,4867 SUNSET BOULEVARD,LOS ANGELES,CA,90027,GENERAL ACUTE CARE,OPEN,LOS ANGELES,34.0985736490001,-118.294175331,NON-PROFIT,460,N
KAISER FOUNDATION HOSPITAL - PANORAMA CITY,13652 CANTARA STREET,PANORAMA CITY,CA,91402,GENERAL ACUTE CARE,OPEN,LOS ANGELES,34.2185641940001,-118.430219294,NON-PROFIT,218,N
GARDENS REGIONAL HOSPITAL AND MEDICAL CENTER,21530 SOUTH PIONEER BOULEVARD,HAWAIIAN GARDENS,CA,90716,GENERAL ACUTE CARE,OPEN,LOS ANGELES,33.833640007,-118.079677951,NON-PROFIT,107,N
EISENHOWER MEDICAL CENTER,39000 BOB HOPE DR,RANCHO MIRAGE,CA,92270,GENERAL ACUTE CARE,OPEN,RIVERSIDE,33.7633520680001,-116.406241091,NON-PROFIT,489,Y
KAISER FOUNDATION HOSPITAL - REDWOOD CITY,1100 VETERANS BOULEVARD,REDWOOD CITY,CA,94063,GENERAL ACUTE CARE,OPEN,SAN MATEO,37.488847836,-122.223390131,NON-PROFIT,149,N
SUTTER DELTA MEDICAL CENTER,3901 LONE TREE WAY,ANTIOCH,CA,94509,GENERAL ACUTE CARE,OPEN,CONTRA COSTA,37.9822344500001,-121.802978505,NON-PROFIT,145,Y
KAISER FOUNDATION HOSPITAL - SACRAMENTO,2025 MORSE AVENUE,SACRAMENTO,CA,95825,GENERAL ACUTE CARE,OPEN,SACRAMENTO,38.601797751,-121.393144026,NON-PROFIT,287,N
SIERRA NEVADA MEMORIAL HOSPITAL,155 GLASSON WAY,GRASS VALLEY,CA,95945,GENERAL ACUTE CARE,OPEN,NEVADA,39.228016294,-121.047499779,NON-PROFIT,104,Y
LA PALMA INTERCOMMUNITY HOSPITAL,7901 WALKER STREET,LA PALMA,CA,90623,GENERAL ACUTE CARE,OPEN,ORANGE,33.8475141810001,-118.038302332,NON-PROFIT,141,Y
HI-DESERT MEDICAL CENTER,6601 WHITE FEATHER ROAD,JOSHUA TREE,CA,92252,GENERAL ACUTE CARE,OPEN,SAN BERNARDINO,34.131899548,-116.275139237,GOVERNMENT - DISTRICT/AUTHORITY,179,Y
HEALDSBURG DISTRICT HOSPITAL,1375 UNIVERSITY STREET,HEALDSBURG,CA,95448,GENERAL ACUTE CARE,OPEN,SONOMA,38.627095508,-122.864401979,GOVERNMENT - DISTRICT/AUTHORITY,43,N
PALMDALE REGIONAL MEDICAL CENTER,38600 MEDICAL CENTER DRIVE,PALMDALE,CA,93551,GENERAL ACUTE CARE,OPEN,LOS ANGELES,34.5828776330001,-118.144366873,PROPRIETARY,157,Y
SAN DIMAS COMMUNITY HOSPITAL,1350 WEST COVINA BOULEVARD,SAN DIMAS,CA,91773,GENERAL ACUTE CARE,OPEN,LOS ANGELES,34.0975093230001,-117.834635766,PROPRIETARY,101,N
SAN GABRIEL VALLEY MEDICAL CENTER,438 W. LAS TUNAS DRIVE,SAN GABRIEL,CA,91776,GENERAL ACUTE CARE,OPEN,LOS ANGELES,34.100868785,-118.105918785,PROPRIETARY,273,N
FRESNO HEART AND SURGICAL HOSPITAL,15 E. AUDUBON DRIVE,FRESNO,CA,93720,GENERAL ACUTE CARE,OPEN,FRESNO,36.8601259070001,-119.788571731,PROPRIETARY,57,N
CHAPMAN GLOBAL MEDICAL CENTER,2601 EAST CHAPMAN AVENUE,ORANGE,CA,92869,GENERAL ACUTE CARE,OPEN,ORANGE,33.788614943,-117.826413156,PROPRIETARY,114,N
ALVARADO HOSPITAL MEDICAL CENTER,6655 ALVARADO ROAD,SAN DIEGO,CA,92120,GENERAL ACUTE CARE,OPEN,SAN DIEGO,32.7765863870001,-117.057064596,PROPRIETARY,226,N
PARADISE VALLEY HOSPITAL,2400 EAST FOURTH STREET,NATIONAL CITY,CA,91950,GENERAL ACUTE CARE,OPEN,SAN DIEGO,32.6853405530001,-117.082336705,PROPRIETARY,227,N
UCSF MEDICAL CENTER,505 PARNASSUS AVENUE,SAN FRANCISCO,CA,94143,GENERAL ACUTE CARE,OPEN,SAN FRANCISCO,37.7630768510001,-122.457877178,GOVERNMENT - LOCAL,580,N
COAST PLAZA HOSPITAL,13100 SOUTH STUDEBAKER ROAD,NORWALK,CA,90650,GENERAL ACUTE CARE,OPEN,LOS ANGELES,33.912693115,-118.09882162,PROPRIETARY,117,N
COMMUNITY HOSPITAL OF HUNTINGTON PARK,2623 EAST SLAUSON AVENUE,HUNTINGTON PARK,CA,90255,GENERAL ACUTE CARE,OPEN,LOS ANGELES,33.989489571,-118.224189855,PROPRIETARY,81,N
OLYMPIA MEDICAL CENTER,5900 WEST OLYMPIA BLVD,LOS ANGELES,CA,90036,GENERAL ACUTE CARE,OPEN,LOS ANGELES,34.0572922740001,-118.360527347,PROPRIETARY,204,N
HAZEL HAWKINS MEMORIAL HOSPITAL,911 SUNSET DRIVE,HOLLISTER,CA,95023,GENERAL ACUTE CARE,OPEN,SAN BENITO,36.8342012480001,-121.386193641,GOVERNMENT - DISTRICT/AUTHORITY,119,Y
FRESNO SURGICAL HOSPITAL,6125 NORTH FRESNO STREET,FRESNO,CA,93710,GENERAL ACUTE CARE,OPEN,FRESNO,36.8249140890001,-119.78216158,PROPRIETARY,27,N
WEST ANAHEIM MEDICAL CENTER,3033 WEST ORANGE AVENUE,ANAHEIM,CA,92804,GENERAL ACUTE CARE,OPEN,ORANGE,33.8253852140001,-117.995073632,PROPRIETARY,219,N
OAK VALLEY HOSPITAL DISTRICT,350 SOUTH OAK STREET,OAKDALE,CA,95361,GENERAL ACUTE CARE,OPEN,STANISLAUS,37.7576162720001,-120.860996573,GOVERNMENT - DISTRICT/AUTHORITY,35,Y
SANTA BARBARA COTTAGE HOSPITAL,400 W. PUEBLO STREET,SANTA BARBARA,CA,93105,GENERAL ACUTE CARE,OPEN,SANTA BARBARA,34.429466689,-119.723809039,NON-PROFIT,412,Y
ALHAMBRA HOSPITAL MEDICAL CENTER,100 S RAYMOND AVE,ALHAMBRA,CA,91801,GENERAL ACUTE CARE,OPEN,LOS ANGELES,34.090215872,-118.144034807,PROPRIETARY,144,N
KAISER FOUNDATION HOSPITAL - SAN FRANCISCO,2425 GEARY BOULEVARD,SAN FRANCISCO,CA,94115,GENERAL ACUTE CARE,OPEN,SAN FRANCISCO,37.7822836060001,-122.443253353,NON-PROFIT,247,N
FRENCH HOSPITAL MEDICAL CENTER,1911 JOHNSON AVENUE,SAN LUIS OBISPO,CA,93401,GENERAL ACUTE CARE,OPEN,SAN LUIS OBISPO,35.2779315060001,-120.650641412,NON-PROFIT,103,N
OJAI VALLEY COMMUNITY HOSPITAL,1306 MARICOPA HIGHWAY,OJAI,CA,93023,GENERAL ACUTE CARE,OPEN,VENTURA,34.4429151860001,-119.264384312,NON-PROFIT,25,N
SANTA YNEZ VALLEY COTTAGE HOSPITAL,2050 VIBORG ROAD,SOLVANG,CA,93463,GENERAL ACUTE CARE,OPEN,SANTA BARBARA,34.6020827880001,-120.126303888,NON-PROFIT,11,N
DAMERON HOSPITAL,525 WEST ACACIA,STOCKTON,CA,95203,GENERAL ACUTE CARE,OPEN,SAN JOAQUIN,37.961673262,-121.300982961,NON-PROFIT,202,N
BANNER LASSEN MEDICAL CENTER,1800 SPRING RIDGE DRIVE,SUSANVILLE,CA,96130,GENERAL ACUTE CARE,OPEN,LASSEN,40.436883277,-120.627728476,NON-PROFIT,38,Y
KAISER FOUNDATION HOSPITAL - BALDWIN PARK,1011 BALDWIN PARK BLVD.,BALDWIN PARK,CA,91706,GENERAL ACUTE CARE,OPEN,LOS ANGELES,34.06534422,-117.985695172,NON-PROFIT,272,N
MADERA COMMUNITY HOSPITAL,1250 EAST ALMOND AVENUE,MADERA,CA,93637,GENERAL ACUTE CARE,OPEN,MADERA,36.9438121160001,-120.0446582,NON-PROFIT,106,N
WATSONVILLE COMMUNITY HOSPITAL,75 NIELSON STREET,WATSONVILLE,CA,95076,GENERAL ACUTE CARE,OPEN,SANTA CRUZ,36.927130666,-121.792911066,NON-PROFIT,106,N
MILLS-PENINSULA MEDICAL CENTER,1501 TROUSDALE DRIVE,BURLINGAME,CA,94010,GENERAL ACUTE CARE,OPEN,SAN MATEO,37.592512749,-122.382323604,NON-PROFIT,241,Y
SEQUOIA HOSPITAL,170 ALAMEDA DE LAS PULGAS,REDWOOD CITY,CA,94062,GENERAL ACUTE CARE,OPEN,SAN MATEO,37.4793650190001,-122.254884344,NON-PROFIT,208,N
SETON MEDICAL CENTER,1900 SULLIVAN AVENUE,DALY CITY,CA,94015,GENERAL ACUTE CARE,OPEN,SAN MATEO,37.679885041,-122.474237571,NON-PROFIT,357,N
NOVATO COMMUNITY HOSPITAL,180 ROLAND WAY,NOVATO,CA,94945,GENERAL ACUTE CARE,OPEN,MARIN,38.0992549150001,-122.56002452,NON-PROFIT,47,N
KAISER FOUNDATION HOSPITAL - WALNUT CREEK,1425 SOUTH MAIN STREET,WALNUT CREEK,CA,94596,GENERAL ACUTE CARE,OPEN,CONTRA COSTA,37.891346362,-122.058839307,NON-PROFIT,233,N
KAISER FOUNDATION HOSPITAL - ANTIOCH,4501 SAND CREEK ROAD,ANTIOCH,CA,94531,GENERAL ACUTE CARE,OPEN,CONTRA COSTA,37.950991125,-121.775138218,NON-PROFIT,150,Y
BAKERSFIELD MEMORIAL HOSPITAL,420 - 34TH STREET,BAKERSFIELD,CA,93301,GENERAL ACUTE CARE,OPEN,KERN,35.3913423340001,-119.006873306,NON-PROFIT,426,Y
MERCY GENERAL HOSPITAL,4001 J STREET,SACRAMENTO,CA,95819,GENERAL ACUTE CARE,OPEN,SACRAMENTO,38.5700612750001,-121.452468425,NON-PROFIT,419,N
HOAG MEMORIAL HOSPITAL PRESBYTERIAN,1 HOAG DR,NEWPORT BEACH,CA,92663,GENERAL ACUTE CARE,OPEN,ORANGE,33.6244711150001,-117.929302005,NON-PROFIT,443,Y
MONTCLAIR HOSPITAL MEDICAL CENTER,5000 SAN BERNARDINO STREET,MONTCLAIR,CA,91763,GENERAL ACUTE CARE,OPEN,SAN BERNARDINO,34.078757766,-117.695976573,NON-PROFIT,102,N
USC VERDUGO HILLS HOSPITAL,1812 VERDUGO BOULEVARD,GLENDALE,CA,91208,GENERAL ACUTE CARE,OPEN,LOS ANGELES,34.2048888570001,-118.215980012,NON-PROFIT,158,Y
ARROWHEAD REGIONAL MEDICAL CENTER,400 N. PEPPER AVENUE,COLTON,CA,92324,GENERAL ACUTE CARE,OPEN,SAN BERNARDINO,34.073989506,-117.351004945,GOVERNMENT - LOCAL,456,Y
PALOMAR HEALTH DOWNTOWN CAMPUS,555 E. VALLEY PARKWAY,ESCONDIDO,CA,92025,GENERAL ACUTE CARE,OPEN,SAN DIEGO,33.1250851180001,-117.075294696,GOVERNMENT - DISTRICT/AUTHORITY,292,Y
SIERRA VISTA REGIONAL MEDICAL CENTER,1010 MURRAY STREET,SAN LUIS OBISPO,CA,93405,GENERAL ACUTE CARE,OPEN,SAN LUIS OBISPO,35.291796785,-120.66605068,PROPRIETARY,164,Y
SAN JOAQUIN GENERAL HOSPITAL,500 WEST HOSPITAL ROAD,FRENCH CAMP,CA,95231,GENERAL ACUTE CARE,OPEN,SAN JOAQUIN,37.886725744,-121.282676604,GOVERNMENT - LOCAL,196,Y
MEMORIAL HOSPITAL OF GARDENA,1145 W. REDONDO BEACH BLVD.,GARDENA,CA,90247,GENERAL ACUTE CARE,OPEN,LOS ANGELES,33.892964883,-118.294783486,PROPRIETARY,172,N
WHITTIER HOSPITAL MEDICAL CENTER,9080 COLIMA ROAD,WHITTIER,CA,90605,GENERAL ACUTE CARE,OPEN,LOS ANGELES,33.950163027,-118.003960985,PROPRIETARY,178,N
MENDOCINO COAST DISTRICT HOSPITAL,700 RIVER DRIVE,FORT BRAGG,CA,95437,GENERAL ACUTE CARE,OPEN,MENDOCINO,39.431233741,-123.800880567,GOVERNMENT - DISTRICT/AUTHORITY,49,Y
BAKERSFIELD HEART HOSPITAL,3001 SILLECT AVENUE,BAKERSFIELD,CA,93308,GENERAL ACUTE CARE,OPEN,KERN,35.384829607,-119.039996401,PROPRIETARY,47,N
POMERADO HOSPITAL,15615 POMERADO ROAD,POWAY,CA,92064,GENERAL ACUTE CARE,OPEN,SAN DIEGO,32.997075184,-117.055551441,GOVERNMENT - DISTRICT/AUTHORITY,236,Y
GARFIELD MEDICAL CENTER,525 NORTH GARFIELD AVENUE,MONTEREY PARK,CA,91754,GENERAL ACUTE CARE,OPEN,LOS ANGELES,34.0681632450001,-118.12385734,PROPRIETARY,210,N
LOS ANGELES COMMUNITY HOSPITAL,4081 EAST OLYMPIC BOULEVARD,LOS ANGELES,CA,90023,GENERAL ACUTE CARE,OPEN,LOS ANGELES,34.0193463100001,-118.18651367,PROPRIETARY,130,N
JOHN F KENNEDY MEMORIAL HOSPITAL,47111 MONROE ST,INDIO,CA,92201,GENERAL ACUTE CARE,OPEN,RIVERSIDE,33.7065682840001,-116.23525807,PROPRIETARY,156,Y
PALO VERDE HOSPITAL,250 NORTH FIRST STREET,BLYTHE,CA,92225,GENERAL ACUTE CARE,OPEN,RIVERSIDE,33.6128617690001,-114.595116279,GOVERNMENT - DISTRICT/AUTHORITY,51,N
JOHN C FREMONT HEALTHCARE DISTRICT,5189 HOSPITAL RD,MARIPOSA,CA,95338,GENERAL ACUTE CARE,OPEN,MARIPOSA,37.500123903,-119.977314443,PROPRIETARY,34,Y
LOS ALAMITOS MEDICAL CENTER,3751 KATELLA AVENUE,LOS ALAMITOS,CA,90720,GENERAL ACUTE CARE,OPEN,ORANGE,33.804413493,-118.067149759,PROPRIETARY,167,N
TRI-CITY MEDICAL CENTER,4002 VISTA WAY,OCEANSIDE,CA,92056,GENERAL ACUTE CARE,OPEN,SAN DIEGO,33.1856203950001,-117.290267305,NON-PROFIT,397,Y
SUTTER DAVIS HOSPITAL,2000 SUTTER PLACE,DAVIS,CA,95616,GENERAL ACUTE CARE,OPEN,YOLO,38.5625039120001,-121.770740018,NON-PROFIT,48,N
ALTA BATES SUMMIT MEDICAL CENTER,350 HAWTHORNE AVENUE,OAKLAND,CA,94609,GENERAL ACUTE CARE,OPEN,ALAMEDA,37.8212158590001,-122.263060594,NON-PROFIT,403,N
KAISER FOUNDATION HOSPITAL - FREMONT,39400 PASEO PADRE PARKWAY,FREMONT,CA,94538,GENERAL ACUTE CARE,OPEN,ALAMEDA,37.5527903660001,-121.975084202,NON-PROFIT,106,N
BEVERLY HOSPITAL,309 WEST BEVERLY BOULEVARD,MONTEBELLO,CA,90640,GENERAL ACUTE CARE,OPEN,LOS ANGELES,34.0145595060001,-118.100446881,NON-PROFIT,224,N
COMMUNITY HOSPITAL OF LONG BEACH,1720 TERMINO AVENUE,LONG BEACH,CA,90804,GENERAL ACUTE CARE,OPEN,LOS ANGELES,33.7884863640001,-118.145240612,NON-PROFIT,208,N
KAISER FOUNDATION HOSPITAL - WEST LA,6041 CADILLAC AVENUE,LOS ANGELES,CA,90034,GENERAL ACUTE CARE,OPEN,LOS ANGELES,34.0384966780001,-118.374696375,NON-PROFIT,288,N
KAISER FOUNDATION HOSPITAL - DOWNEY,9333 IMPERIAL HIGHWAY,DOWNEY,CA,90242,GENERAL ACUTE CARE,OPEN,LOS ANGELES,33.9195067900001,-118.128997851,NON-PROFIT,352,N
KECK HOSPITAL OF USC,1500 SAN PABLO STREET,LOS ANGELES,CA,90033,GENERAL ACUTE CARE,OPEN,LOS ANGELES,34.062029841,-118.2013106,NON-PROFIT,401,Y
LOMA LINDA UNIVERSITY MEDICAL CENTER-MURRIETA,28100 BAXTER RD,MURRIETA,CA,92563,GENERAL ACUTE CARE,OPEN,RIVERSIDE,33.614776944,-117.169070306,NON-PROFIT,106,Y
O'CONNOR HOSPITAL,2105 FOREST AVENUE,SAN JOSE,CA,95128,GENERAL ACUTE CARE,OPEN,SANTA CLARA,37.327924739,-121.938392012,NON-PROFIT,358,N
DOMINICAN HOSPITAL,1555 SOQUEL DRIVE,SANTA CRUZ,CA,95065,GENERAL ACUTE CARE,OPEN,SANTA CRUZ,36.990020703,-121.984045014,NON-PROFIT,223,Y
KAISER FOUNDATION HOSPITAL - SOUTH SAN FRANCISCO,1200 EL CAMINO REAL,SOUTH SAN FRANCISCO,CA,94080,GENERAL ACUTE CARE,OPEN,SAN MATEO,37.6596877590001,-122.439269957,NON-PROFIT,120,N
SUTTER AUBURN FAITH HOSPITAL,11815 EDUCATION STREET,AUBURN,CA,95602,GENERAL ACUTE CARE,OPEN,PLACER,38.945103718,-121.10074822,NON-PROFIT,64,N
KAISER FOUNDATION HOSPITAL - FRESNO,7300 NORTH FRESNO STREET,FRESNO,CA,93720,GENERAL ACUTE CARE,OPEN,FRESNO,36.8425296880001,-119.780305097,NON-PROFIT,169,N
BARTON MEMORIAL HOSPITAL,2170 SOUTH AVENUE,SOUTH LAKE TAHOE,CA,96150,GENERAL ACUTE CARE,OPEN,EL DORADO,38.9115786790001,-119.996546848,NON-PROFIT,111,Y
REDWOOD MEMORIAL HOSPITAL,3300 RENNER DRIVE,FORTUNA,CA,95540,GENERAL ACUTE CARE,OPEN,HUMBOLDT,40.5826249150001,-124.136405293,NON-PROFIT,35,N
GEORGE L MEE MEMORIAL HOSPITAL,300 CANAL STREET,KING CITY,CA,93930,GENERAL ACUTE CARE,OPEN,MONTEREY,36.2058124330001,-121.132857346,NON-PROFIT,94,Y
HOAG ORTHOPEDIC INSTITUTE,16250 SAND CANYON AVENUE,IRVINE,CA,92618,GENERAL ACUTE CARE,OPEN,ORANGE,33.6603969440001,-117.773206443,NON-PROFIT,70,N
LOS ROBLES HOSPITAL & MEDICAL CENTER,215 WEST JANSS ROAD,THOUSAND OAKS,CA,91360,GENERAL ACUTE CARE,OPEN,VENTURA,34.2079705140001,-118.882894893,PROPRIETARY,321,Y
QUEEN OF THE VALLEY MEDICAL CENTER,1000 TRANCAS STREET,NAPA,CA,94558,GENERAL ACUTE CARE,OPEN,NAPA,38.3245032720001,-122.297056809,NON-PROFIT,211,Y
ALAMEDA HOSPITAL,2070 CLINTON,ALAMEDA,CA,94501,GENERAL ACUTE CARE,OPEN,ALAMEDA,37.7627943590001,-122.254213591,GOVERNMENT - DISTRICT/AUTHORITY,135,N
CENTINELA HOSPITAL MEDICAL CENTER,555 EAST HARDY STREET,INGLEWOOD,CA,90301,GENERAL ACUTE CARE,OPEN,LOS ANGELES,33.950444428,-118.348235992,PROPRIETARY,369,N
GREATER EL MONTE COMMUNITY HOSPITAL,1701 SANTA ANITA AVENUE,SOUTH EL MONTE,CA,91733,GENERAL ACUTE CARE,OPEN,LOS ANGELES,34.0480352820001,-118.043294865,GOVERNMENT - DISTRICT/AUTHORITY,117,N
LAC+USC MEDICAL CENTER,1200 NORTH STATE STREET,LOS ANGELES,CA,90033,GENERAL ACUTE CARE,OPEN,LOS ANGELES,34.0595615890001,-118.208356609,GOVERNMENT - LOCAL,676,Y
DESERT REGIONAL MEDICAL CENTER,1150 NORTH INDIAN CANYON DRIVE,PALM SPRINGS,CA,92262,GENERAL ACUTE CARE,OPEN,RIVERSIDE,33.8386678530001,-116.54345357,PROPRIETARY,385,Y
RIVERSIDE COMMUNITY HOSPITAL,4445 MAGNOLIA AVENUE,RIVERSIDE,CA,92501,GENERAL ACUTE CARE,OPEN,RIVERSIDE,33.976554225,-117.380988945,PROPRIETARY,373,Y
SAN MATEO MEDICAL CENTER,222 WEST 39TH AVENUE,SAN MATEO,CA,94403,GENERAL ACUTE CARE,OPEN,SAN MATEO,37.5311465570001,-122.299494798,GOVERNMENT - LOCAL,228,N
SHASTA REGIONAL MEDICAL CENTER,1100 BUTTE STREET,REDDING,CA,96001,GENERAL ACUTE CARE,OPEN,SHASTA,40.5856318210001,-122.387868316,PROPRIETARY,246,Y
NORTHERN INYO HOSPITAL,150 PIONEER LANE,BISHOP,CA,93514,GENERAL ACUTE CARE,OPEN,INYO,37.362061872,-118.406239766,GOVERNMENT - DISTRICT/AUTHORITY,25,N
KERN MEDICAL CENTER,1700 MOUNT VERNON AVENUE,BAKERSFIELD,CA,93306,GENERAL ACUTE CARE,OPEN,KERN,35.382498845,-118.969773674,GOVERNMENT - LOCAL,222,Y
KERN VALLEY HEALTHCARE DISTRICT,6412 LAUREL AVENUE,LAKE ISABELLA,CA,93240,GENERAL ACUTE CARE,OPEN,KERN,35.635028295,-118.406991731,GOVERNMENT - DISTRICT/AUTHORITY,101,Y
MAD RIVER COMMUNITY HOSPITAL,3800 JANES ROAD,ARCATA,CA,95521,GENERAL ACUTE CARE,OPEN,HUMBOLDT,40.896056586,-124.091189222,PROPRIETARY,78,Y
EL CENTRO REGIONAL MEDICAL CENTER,1415 ROSS AVENUE,EL CENTRO,CA,92243,GENERAL ACUTE CARE,OPEN,IMPERIAL,32.780434681,-115.568728255,GOVERNMENT - LOCAL,161,Y
PIONEERS MEMORIAL HEALTHCARE DISTRICT,207 W LEGION RD,BRAWLEY,CA,92227,GENERAL ACUTE CARE,OPEN,IMPERIAL,32.9590929730001,-115.55379865,GOVERNMENT - DISTRICT/AUTHORITY,107,Y
NATIVIDAD MEDICAL CENTER,1441 CONSTITUTION BOULEVARD,SALINAS,CA,93906,GENERAL ACUTE CARE,OPEN,MONTEREY,36.6987604650001,-121.631708637,GOVERNMENT - LOCAL,172,Y
ANAHEIM GLOBAL MEDICAL CENTER,1025 SOUTH ANAHEIM BLVD.,ANAHEIM,CA,92805,GENERAL ACUTE CARE,OPEN,ORANGE,33.8197332600001,-117.909355225,PROPRIETARY,189,N
DOCTORS MEDICAL CENTER,1441 FLORIDA AVENUE,MODESTO,CA,95350,GENERAL ACUTE CARE,OPEN,STANISLAUS,37.665147604,-120.997020691,PROPRIETARY,394,Y
SIERRA VIEW MEDICAL CENTER,465 WEST PUTNAM AVENUE,PORTERVILLE,CA,93257,GENERAL ACUTE CARE,OPEN,TULARE,36.068537173,-119.027360415,GOVERNMENT - DISTRICT/AUTHORITY,167,N
BARSTOW COMMUNITY HOSPITAL,555 SOUTH 7TH AVENUE,BARSTOW,CA,92311,GENERAL ACUTE CARE,CLOSED,SAN BERNARDINO,34.8938264930001,-117.018901785,PROPRIETARY,23,Y
CHINO VALLEY MEDICAL CENTER,5451 WALNUT AVENUE,CHINO,CA,91710,GENERAL ACUTE CARE,OPEN,SAN BERNARDINO,34.025687901,-117.68602553,PROPRIETARY,126,N
DESERT VALLEY HOSPITAL,16850 BEAR VALLEY ROAD,VICTORVILLE,CA,92395,GENERAL ACUTE CARE,OPEN,SAN BERNARDINO,34.4724019430001,-117.298158212,PROPRIETARY,148,Y
VENTURA COUNTY MEDICAL CENTER,300 HILLMONT AVE,VENTURA,CA,93003,GENERAL ACUTE CARE,OPEN,VENTURA,34.2773501990001,-119.252133663,GOVERNMENT - LOCAL,223,Y
ANTELOPE VALLEY HOSPITAL,1600 WEST AVENUE J,LANCASTER,CA,93534,GENERAL ACUTE CARE,OPEN,LOS ANGELES,34.6882689760001,-118.158826024,GOVERNMENT - DISTRICT/AUTHORITY,420,Y
ENCINO HOSPITAL MEDICAL CENTER,16237 VENTURA BOULEVARD,ENCINO,CA,91436,GENERAL ACUTE CARE,OPEN,LOS ANGELES,34.157227103,-118.48702421,PROPRIETARY,148,N
HOLLYWOOD PRESBYTERIAN MEDICAL CENTER,1300 NORTH VERMONT AVENUE,LOS ANGELES,CA,90027,GENERAL ACUTE CARE,OPEN,LOS ANGELES,34.0964510210001,-118.290470453,PROPRIETARY,434,Y
SANTA CLARA VALLEY MEDICAL CENTER,751 SOUTH BASCOM AVENUE,SAN JOSE,CA,95128,GENERAL ACUTE CARE,OPEN,SANTA CLARA,37.3128895300001,-121.932962749,GOVERNMENT - LOCAL,574,Y
PLUMAS DISTRICT HOSPITAL,1065 BUCKS LAKE ROAD,QUINCY,CA,95971,GENERAL ACUTE CARE,OPEN,PLUMAS,39.9397289630001,-120.961700253,GOVERNMENT - DISTRICT/AUTHORITY,25,Y
TAHOE FOREST HOSPITAL,10121 PINE AVE,TRUCKEE,CA,96161,GENERAL ACUTE CARE,OPEN,NEVADA,39.3251073810001,-120.200773315,GOVERNMENT - DISTRICT/AUTHORITY,72,Y
HUNTINGTON BEACH HOSPITAL,17772 BEACH BOULEVARD,HUNTINGTON BEACH,CA,92647,GENERAL ACUTE CARE,OPEN,ORANGE,33.70331242,-117.987858461,PROPRIETARY,131,N
PLACENTIA LINDA HOSPITAL,1301 NORTH ROSE DRIVE,PLACENTIA,CA,92870,GENERAL ACUTE CARE,OPEN,ORANGE,33.8870517450001,-117.843204826,PROPRIETARY,114,N
ORANGE COUNTY GLOBAL MEDICAL CENTER,1001 NORTH TUSTIN AVENUE,SANTA ANA,CA,92705,GENERAL ACUTE CARE,OPEN,ORANGE,33.7543838140001,-117.833422819,PROPRIETARY,282,Y
KAWEAH DELTA MEDICAL CENTER,400 WEST MINERAL KING,VISALIA,CA,93291,GENERAL ACUTE CARE,OPEN,TULARE,36.3278429150001,-119.295100564,GOVERNMENT - DISTRICT/AUTHORITY,403,Y
OROVILLE HOSPITAL,2767 OLIVE HIGHWAY,OROVILLE,CA,95966,GENERAL ACUTE CARE,OPEN,BUTTE,39.5061495950001,-121.541158141,NON-PROFIT,133,Y
COMMUNITY HOSPITAL OF SAN BERNARDINO,1805 MEDICAL CENTER DRIVE,SAN BERNARDINO,CA,92411,GENERAL ACUTE CARE,OPEN,SAN BERNARDINO,34.1313643240001,-117.321813965,NON-PROFIT,347,Y
LOMA LINDA UNIVERSITY MEDICAL CENTER,11234 ANDERSON STREET,LOMA LINDA,CA,92354,GENERAL ACUTE CARE,OPEN,SAN BERNARDINO,34.0496668370001,-117.264012364,NON-PROFIT,371,Y
REDLANDS COMMUNITY HOSPITAL,350 TERRACINA BOULEVARD,REDLANDS,CA,92373,GENERAL ACUTE CARE,OPEN,SAN BERNARDINO,34.0364630890001,-117.205014803,NON-PROFIT,229,N
VICTOR VALLEY GLOBAL MEDICAL CENTER,15248 ELEVENTH STREET,VICTORVILLE,CA,92395,GENERAL ACUTE CARE,OPEN,SAN BERNARDINO,34.528306419,-117.29319765,NON-PROFIT,101,Y
GROSSMONT HOSPITAL,5555 GROSSMONT CENTER DRIVE,LA MESA,CA,91942,GENERAL ACUTE CARE,OPEN,SAN DIEGO,32.7805704360001,-117.006781525,NON-PROFIT,528,Y
SCRIPPS MERCY HOSPITAL,4077 FIFTH AVENUE,SAN DIEGO,CA,92103,GENERAL ACUTE CARE,OPEN,SAN DIEGO,32.7514306150001,-117.160053593,NON-PROFIT,501,Y
SHARP CHULA VISTA MEDICAL CENTER,751 MEDICAL CENTER COURT,CHULA VISTA,CA,91911,GENERAL ACUTE CARE,OPEN,SAN DIEGO,32.6189760670001,-117.023185612,NON-PROFIT,343,N
SHARP MEMORIAL HOSPITAL,7901 FROST STREET,SAN DIEGO,CA,92123,GENERAL ACUTE CARE,OPEN,SAN DIEGO,32.799284347,-117.154472839,NON-PROFIT,656,Y
CHINESE HOSPITAL,845 JACKSON STREET,SAN FRANCISCO,CA,94133,GENERAL ACUTE CARE,OPEN,SAN FRANCISCO,37.7954882780001,-122.409168763,NON-PROFIT,54,N
SUTTER AMADOR HOSPITAL,200 MISSION BLVD,JACKSON,CA,95642,GENERAL ACUTE CARE,OPEN,AMADOR,38.350117009,-120.76434117,NON-PROFIT,52,Y
PETALUMA VALLEY HOSPITAL,400 NORTH MC DOWELL BOULEVARD,PETALUMA,CA,94954,GENERAL ACUTE CARE,OPEN,SONOMA,38.2546957970001,-122.631778328,NON-PROFIT,80,Y
KAISER FOUNDATION HOSPITAL - VACAVILLE,1 QUALITY DRIVE,VACAVILLE,CA,95688,GENERAL ACUTE CARE,OPEN,SOLANO,38.388627662,-121.939104818,NON-PROFIT,140,Y
SUTTER SOLANO MEDICAL CENTER,300 HOSPITAL DRIVE,VALLEJO,CA,94589,GENERAL ACUTE CARE,OPEN,SOLANO,38.1311838820001,-122.23735858,NON-PROFIT,102,Y
GOLETA VALLEY COTTAGE HOSPITAL,351 SOUTH PATTERSON AVENUE,SANTA BARBARA,CA,93111,GENERAL ACUTE CARE,OPEN,SANTA BARBARA,34.4331333910001,-119.810629967,NON-PROFIT,52,N
MARIAN REGIONAL MEDICAL CENTER,1400 EAST CHURCH STREET,SANTA MARIA,CA,93454,GENERAL ACUTE CARE,OPEN,SANTA BARBARA,34.9511999280001,-120.413130536,NON-PROFIT,321,Y
MARK TWAIN MEDICAL CENTER,768 MOUNTAIN RANCH ROAD,SAN ANDREAS,CA,95249,GENERAL ACUTE CARE,OPEN,CALAVERAS,38.1900595880001,-120.670575598,NON-PROFIT,48,Y
EDEN MEDICAL CENTER,20103 LAKE CHABOT ROAD,CASTRO VALLEY,CA,94546,GENERAL ACUTE CARE,OPEN,ALAMEDA,37.69830547,-122.089861054,NON-PROFIT,130,Y
KAISER FOUNDATION HOSPITAL - OAKLAND/RICHMOND,275 W MACARTHUR BLVD,OAKLAND,CA,94611,GENERAL ACUTE CARE,OPEN,ALAMEDA,37.823613263,-122.257885034,NON-PROFIT,315,N
SUTTER TRACY COMMUNITY HOSPITAL,1420 NORTH TRACY BOULEVARD,TRACY,CA,95376,GENERAL ACUTE CARE,OPEN,SAN JOAQUIN,37.7442185150001,-121.433929742,NON-PROFIT,81,N
HUNTINGTON MEMORIAL HOSPITAL,100 W. CALIFORNIA BOULEVARD,PASADENA,CA,91105,GENERAL ACUTE CARE,OPEN,LOS ANGELES,34.1343853610001,-118.152983944,NON-PROFIT,625,Y
KAISER FOUNDATION HOSPITAL - WOODLAND HILLS,5601 DE SOTO AVENUE,WOODLAND HILLS,CA,91367,GENERAL ACUTE CARE,OPEN,LOS ANGELES,34.1703945030001,-118.589687223,NON-PROFIT,262,N
NORTHRIDGE HOSPITAL MEDICAL CENTER,18300 ROSCOE BOULEVARD,NORTHRIDGE,CA,91325,GENERAL ACUTE CARE,OPEN,LOS ANGELES,34.219824929,-118.533068188,NON-PROFIT,417,Y
POMONA VALLEY HOSPITAL MEDICAL CENTER,1798 NORTH GAREY AVENUE,POMONA,CA,91767,GENERAL ACUTE CARE,OPEN,LOS ANGELES,34.0768488200001,-117.750552022,NON-PROFIT,437,Y
PROVIDENCE HOLY CROSS MEDICAL CENTER,15031 RINALDI STREET,MISSION HILLS,CA,91345,GENERAL ACUTE CARE,OPEN,LOS ANGELES,34.279547441,-118.459807664,NON-PROFIT,377,Y
SHERMAN OAKS HOSPITAL,4929 VAN NUYS BOULEVARD,SHERMAN OAKS,CA,91403,GENERAL ACUTE CARE,OPEN,LOS ANGELES,34.160194958,-118.449414012,NON-PROFIT,153,Y
TORRANCE MEMORIAL MEDICAL CENTER,3330 WEST LOMITA BOULEVARD,TORRANCE,CA,90505,GENERAL ACUTE CARE,OPEN,LOS ANGELES,33.811754222,-118.344292925,NON-PROFIT,649,Y
VALLEY PRESBYTERIAN HOSPITAL,15107 VAN OWEN STREET,VAN NUYS,CA,91405,GENERAL ACUTE CARE,OPEN,LOS ANGELES,34.194989499,-118.463021294,NON-PROFIT,350,N
SUTTER LAKESIDE HOSPITAL,5176 HILL ROAD EAST,LAKEPORT,CA,95453,GENERAL ACUTE CARE,OPEN,LAKE,39.104953467,-122.906689976,NON-PROFIT,30,Y
STANFORD HEALTH CARE,300 PASTEUR DRIVE,PALO ALTO,CA,94305,GENERAL ACUTE CARE,OPEN,SANTA CLARA,37.4346524360001,-122.174883097,NON-PROFIT,613,Y
KAISER FOUNDATION HOSPITAL - ROSEVILLE,1600 EUREKA ROAD,ROSEVILLE,CA,95661,GENERAL ACUTE CARE,OPEN,PLACER,38.7468058690001,-121.2509392,NON-PROFIT,340,N
SUTTER ROSEVILLE MEDICAL CENTER,ONE MEDICAL PLAZA,ROSEVILLE,CA,95661,GENERAL ACUTE CARE,OPEN,PLACER,38.766159997,-121.249308644,NON-PROFIT,328,Y
MEMORIAL HOSPITAL LOS BANOS,520 WEST I STREET,LOS BANOS,CA,93635,GENERAL ACUTE CARE,OPEN,MERCED,37.0640976920001,-120.859189609,NON-PROFIT,44,Y
CLOVIS COMMUNITY MEDICAL CENTER,2755 HERNDON AVENUE,CLOVIS,CA,93611,GENERAL ACUTE CARE,OPEN,FRESNO,36.839089899,-119.660476654,NON-PROFIT,208,Y
MARSHALL MEDICAL CENTER,1100 MARSHALL WAY,PLACERVILLE,CA,95667,GENERAL ACUTE CARE,OPEN,EL DORADO,38.724947845,-120.791412003,NON-PROFIT,113,N
MERCY HOSPITAL OF FOLSOM,1650 CREEKSIDE DRIVE,FOLSOM,CA,95630,GENERAL ACUTE CARE,OPEN,SACRAMENTO,38.670314906,-121.145676911,NON-PROFIT,106,Y
METHODIST HOSPITAL OF SACRAMENTO,7500 HOSPITAL DRIVE,SACRAMENTO,CA,95823,GENERAL ACUTE CARE,OPEN,SACRAMENTO,38.4635474510001,-121.416526442,NON-PROFIT,329,N
"SUTTER MEDICAL CENTER, SACRAMENTO",2825 CAPITOL AVE,SACRAMENTO,CA,95816,GENERAL ACUTE CARE,OPEN,SACRAMENTO,38.571967151,-121.469224809,NON-PROFIT,523,N
UNIVERSITY OF CALIFORNIA DAVIS MEDICAL CENTER,2315 STOCKTON BOULEVARD,SACRAMENTO,CA,95817,GENERAL ACUTE CARE,OPEN,SACRAMENTO,38.5549297420001,-121.455455508,NON-PROFIT,611,Y
FAIRCHILD MEDICAL CENTER,444 BRUCE STREET,YREKA,CA,96097,GENERAL ACUTE CARE,OPEN,SISKIYOU,41.7193733080001,-122.645716555,NON-PROFIT,28,N
COMMUNITY HOSPITAL OF THE MONTEREY PENINSULA,23625 W. R. HOLMAN HIGHWAY,MONTEREY,CA,93940,GENERAL ACUTE CARE,OPEN,MONTEREY,36.5789018670001,-121.913128652,NON-PROFIT,258,N
AHMC ANAHEIM REGIONAL MEDICAL CENTER,1111 WEST LA PALMA AVENUE,ANAHEIM,CA,92801,GENERAL ACUTE CARE,OPEN,ORANGE,33.8481537930001,-117.934447694,NON-PROFIT,223,N
SOUTH COAST GLOBAL MEDICAL CENTER,2701 BRISTOL STREET,SANTA ANA,CA,92704,GENERAL ACUTE CARE,OPEN,ORANGE,33.7111339860001,-117.884622209,NON-PROFIT,178,N
SUTTER SANTA ROSA REGIONAL HOSPITAL,30 MARK WEST SPRINGS RD.,SANTA ROSA,CA,95403,GENERAL ACUTE CARE,OPEN,SONOMA,38.4949592150001,-122.751871971,NON-PROFIT,84,Y
SAN ANTONIO REGIONAL HOSPITAL,999 SAN BERNARDINO ROAD,UPLAND,CA,91786,GENERAL ACUTE CARE,OPEN,SAN BERNARDINO,34.101809342,-117.637566025,NON-PROFIT,271,Y
ORCHARD HOSPITAL,240 SPRUCE STREET,GRIDLEY,CA,95948,GENERAL ACUTE CARE,OPEN,BUTTE,39.367526318,-121.689654601,NON-PROFIT,45,N
SONOMA VALLEY HOSPITAL,347 ANDRIEUX STREET,SONOMA,CA,95476,GENERAL ACUTE CARE,OPEN,SONOMA,38.288073866,-122.465010195,GOVERNMENT - DISTRICT/AUTHORITY,75,N
LOMPOC VALLEY MEDICAL CENTER,1515 E. OCEAN AVENUE,LOMPOC,CA,93436,GENERAL ACUTE CARE,OPEN,SANTA BARBARA,34.640910994,-120.439532368,GOVERNMENT - DISTRICT/AUTHORITY,60,N
DOCTORS HOSPITAL OF MANTECA,1205 EAST NORTH STREET,MANTECA,CA,95336,GENERAL ACUTE CARE,OPEN,SAN JOAQUIN,37.801583018,-121.196916878,PROPRIETARY,73,N
PACIFICA HOSPITAL OF THE VALLEY,9449 SAN FERNANDO ROAD,SUN VALLEY,CA,91352,GENERAL ACUTE CARE,OPEN,LOS ANGELES,34.240098335,-118.396362905,PROPRIETARY,231,N
SAN GORGONIO MEMORIAL HOSPITAL,600 HIGHLAND SPRINGS AVENUE,BANNING,CA,92220,GENERAL ACUTE CARE,OPEN,RIVERSIDE,33.9318207480001,-116.946102155,GOVERNMENT - DISTRICT/AUTHORITY,71,Y
CONTRA COSTA REGIONAL MEDICAL CENTER,2500 ALHAMBRA AVENUE,MARTINEZ,CA,94553,GENERAL ACUTE CARE,OPEN,CONTRA COSTA,38.0067980110001,-122.132814786,GOVERNMENT - LOCAL,167,N
TEMECULA VALLEY HOSPITAL,31700 TEMECULA PKWY,TEMECULA,CA,92592,GENERAL ACUTE CARE,OPEN,RIVERSIDE,33.480797593,-117.106030737,NOT AVAILABLE,140,Y
